     2.11           N: GPS NAV DATA                         RINEX VERSION / TYPE
CONVBIN demo5                           20190824 185607 UTC PGM / RUN BY / DATE 
log: 2019-08-23-11-38-35.rtcm3                              COMMENT             
format: RTCM 3                                              COMMENT             
                                                            END OF HEADER       
 6 19  8 24 18  0  0.0 -.351886264980E-04 -.120508047985E-10  .000000000000E+00
     .530000000000E+02 -.631562500000E+02  .425160566787E-08 -.269598198277E+01
    -.321306288242E-05  .136757513974E-02  .861659646034E-05  .515364437294E+04
     .583200000000E+06 -.745058059692E-08  .178998724733E+01  .279396772385E-07
     .976120374806E+00  .221875000000E+03 -.110924948515E+01 -.785068415536E-08
     .128219626576E-09  .100000000000E+01  .206700000000E+04  .000000000000E+00
     .200000000000E+01  .000000000000E+00  .419095158577E-08  .530000000000E+02
     .576047000000E+06  .400000000000E+01
17 19  8 24 18  0  0.0  .112741254270E-03  .682121026330E-11  .000000000000E+00
     .430000000000E+02 -.307812500000E+02  .421196115937E-08 -.907750052805E+00
    -.138394534588E-05  .130321889883E-01  .469945371151E-05  .515356021500E+04
     .583200000000E+06 -.201165676117E-06  .799306565915E+00  .150874257088E-06
     .984245309174E+00  .305875000000E+03 -.170501372531E+01 -.822855703814E-08
     .471448209139E-10  .100000000000E+01  .206700000000E+04  .000000000000E+00
     .200000000000E+01  .000000000000E+00 -.111758708954E-07  .430000000000E+02
     .576047000000E+06  .400000000000E+01
 9 19  8 24 18  0  0.0 -.142999924719E-04 -.909494701773E-11  .000000000000E+00
     .560000000000E+02 -.531250000000E+01  .496556397853E-08 -.378110131153E+00
    -.286847352982E-06  .130799994804E-02  .718235969543E-05  .515360823059E+04
     .583200000000E+06 -.372529029846E-08 -.241132983037E+01 -.130385160446E-07
     .952625496447E+00  .235312500000E+03  .169572463145E+01 -.824034324337E-08
    -.216794744657E-09  .100000000000E+01  .206700000000E+04  .000000000000E+00
     .200000000000E+01  .000000000000E+00  .139698386192E-08  .560000000000E+02
     .576047000000E+06  .400000000000E+01
 1 19  8 24 18  0  0.0 -.106725376099E-03 -.118234311230E-10  .000000000000E+00
     .350000000000E+02 -.744375000000E+02  .412981488051E-08 -.298959976174E+01
    -.397488474846E-05  .911117647775E-02  .827945768833E-05  .515365178490E+04
     .583200000000E+06 -.167638063431E-07  .179826644202E+01 -.186264514923E-06
     .976493796349E+00  .229156250000E+03  .756389511688E+00 -.773210778761E-08
     .123933733766E-09  .100000000000E+01  .206700000000E+04  .000000000000E+00
     .200000000000E+01  .000000000000E+00  .558793544769E-08  .350000000000E+02
     .576047000000E+06  .400000000000E+01
31 19  8 24 18  0  0.0  .151116400957E-04 -.261479726760E-11  .000000000000E+00
     .560000000000E+02  .480000000000E+02  .436732477375E-08  .236672102549E+01
     .251084566116E-05  .928364088759E-02  .102669000626E-04  .515368164444E+04
     .583200000000E+06 -.115483999252E-06 -.132107160393E+01  .540167093277E-07
     .959065018988E+00  .183718750000E+03  .197354553866E-01 -.787461372356E-08
    -.378587198248E-09  .100000000000E+01  .206700000000E+04  .000000000000E+00
     .200000000000E+01  .000000000000E+00 -.135041773319E-07  .560000000000E+02
     .576767000000E+06  .400000000000E+01
11 19  8 24 18  0  0.0 -.526341609657E-03  .103455022327E-10  .000000000000E+00
     .850000000000E+02 -.725937500000E+02  .565237830139E-08  .255498018171E+01
    -.386685132980E-05  .167444542749E-01  .488944351673E-05  .515372624588E+04
     .583200000000E+06  .253319740295E-06  .134147318151E+01 -.558793544769E-08
     .910165864519E+00  .256812500000E+03  .193121438459E+01 -.845392356842E-08
    -.717887045734E-10  .100000000000E+01  .206700000000E+04  .000000000000E+00
     .200000000000E+01  .000000000000E+00 -.121071934700E-07  .850000000000E+02
     .576767000000E+06  .400000000000E+01
26 19  8 24 17 59 44.0  .227969139814E-04  .898126018001E-11  .000000000000E+00
     .100000000000E+01  .854062500000E+02  .461054919074E-08  .107644079547E+01
     .444240868092E-05  .380685541313E-02  .626593828201E-05  .515366344261E+04
     .583184000000E+06 -.149011611938E-07 -.329427296918E+00  .353902578354E-07
     .950558403442E+00  .251750000000E+03  .136672436910E+00 -.829213111483E-08
     .864321716755E-10  .100000000000E+01  .206700000000E+04  .000000000000E+00
     .200000000000E+01  .000000000000E+00  .745058059692E-08  .100000000000E+01
     .578478000000E+06  .400000000000E+01
 7 19  8 24 18  0  0.0 -.919373705983E-04 -.784439180279E-11  .000000000000E+00
     .940000000000E+02  .378750000000E+02  .443768484739E-08  .266707778487E+01
     .183284282684E-05  .131424285937E-01  .946037471294E-05  .515373873901E+04
     .583200000000E+06 -.372529029846E-07 -.133549690954E+01 -.175088644028E-06
     .954542915378E+00  .192437500000E+03 -.243639315001E+01 -.779889628391E-08
    -.252867675811E-09  .100000000000E+01  .206700000000E+04  .000000000000E+00
     .200000000000E+01  .000000000000E+00 -.111758708954E-07  .940000000000E+02
     .578478000000E+06  .400000000000E+01
 2 19  8 24 18  0  0.0 -.290047377348E-03 -.829913915368E-11  .000000000000E+00
     .840000000000E+02 -.787187500000E+02  .453483175109E-08 -.273472730665E+01
    -.401772558689E-05  .189835004276E-01  .824034214020E-05  .515377684593E+04
     .583200000000E+06  .301748514175E-06  .172767242602E+01  .596046447754E-07
     .955574300419E+00  .211250000000E+03 -.172093357143E+01 -.779639617977E-08
     .196793911542E-09  .100000000000E+01  .206700000000E+04  .000000000000E+00
     .200000000000E+01  .000000000000E+00 -.204890966415E-07  .840000000000E+02
     .578569000000E+06  .400000000000E+01
16 19  8 24 18  0  0.0 -.678733922541E-04 -.341060513165E-11  .000000000000E+00
     .760000000000E+02  .716875000000E+02  .399909514979E-08  .143162708079E+00
     .387802720070E-05  .107423892478E-01  .596977770329E-05  .515362813950E+04
     .583200000000E+06  .409781932831E-07 -.214941659926E+00  .137835741043E-06
     .982299712977E+00  .275281250000E+03  .582165711482E+00 -.812105256015E-08
     .138577200868E-09  .100000000000E+01  .206700000000E+04  .000000000000E+00
     .200000000000E+01  .000000000000E+00 -.107102096081E-07  .760000000000E+02
     .580758000000E+06  .400000000000E+01
29 19  8 24 18  0  0.0  .116329640150E-03 -.101181285572E-10  .000000000000E+00
     .460000000000E+02 -.430312500000E+02  .410874257419E-08 -.512122162298E+00
    -.249408185482E-05  .120929628611E-02  .449083745480E-05  .515370577240E+04
     .583200000000E+06 -.167638063431E-07  .810583891250E+00  .391155481339E-07
     .985750726486E+00  .308156250000E+03  .194960201990E+01 -.808212236712E-08
    -.107147320259E-11  .100000000000E+01  .206700000000E+04  .000000000000E+00
     .200000000000E+01  .000000000000E+00 -.977888703346E-08  .460000000000E+02
     .582917000000E+06  .400000000000E+01
30 19  8 24 18  0  0.0 -.263298861682E-04 -.784439180279E-11  .000000000000E+00
     .690000000000E+02  .395625000000E+02  .480948604868E-08  .262378005888E+01
     .198371708393E-05  .420927209780E-02  .901147723198E-05  .515376903534E+04
     .583200000000E+06 -.316649675369E-07 -.130864199069E+01  .000000000000E+00
     .939969018260E+00  .196281250000E+03 -.290740187662E+01 -.811462372094E-08
    -.295726603914E-09  .100000000000E+01  .206700000000E+04  .000000000000E+00
     .200000000000E+01  .000000000000E+00  .372529029846E-08  .690000000000E+02
     .582917000000E+06  .400000000000E+01
 9 19  8 24 20  0  0.0 -.143656507134E-04 -.909494701773E-11  .000000000000E+00
     .570000000000E+02 -.340625000000E+01  .499735101687E-08  .672175229516E+00
    -.249594449997E-06  .130750786047E-02  .711530447006E-05  .515360728455E+04
     .590400000000E+06 -.428408384323E-07 -.241138933017E+01  .149011611938E-07
     .952624106675E+00  .238281250000E+03  .169566393352E+01 -.822498546080E-08
    -.177864551630E-09  .100000000000E+01  .206700000000E+04  .000000000000E+00
     .200000000000E+01  .000000000000E+00  .139698386192E-08  .570000000000E+02
     .583217000000E+06  .400000000000E+01
 6 19  8 24 20  0  0.0 -.352752394974E-04 -.120508047985E-10  .000000000000E+00
     .910000000000E+02 -.689062500000E+02  .416481633846E-08 -.164450258397E+01
    -.351481139660E-05  .136625522282E-02  .801123678684E-05  .515364850426E+04
     .590400000000E+06 -.391155481339E-07  .178993066312E+01  .149011611938E-07
     .976121208669E+00  .236593750000E+03 -.111053365073E+01 -.787282793488E-08
     .131076888450E-09  .100000000000E+01  .206700000000E+04  .000000000000E+00
     .200000000000E+01  .000000000000E+00  .419095158577E-08  .910000000000E+02
     .583217000000E+06  .400000000000E+01
23 19  8 24 20  0  0.0 -.170522835106E-03  .193267624127E-11  .000000000000E+00
     .950000000000E+02  .250000000000E+00  .521986028528E-08 -.112335254062E+01
     .372529029846E-07  .132515274454E-01  .683031976223E-05  .515376560020E+04
     .590400000000E+06  .234693288803E-06 -.241735930867E+01  .216066837311E-06
     .943437570693E+00  .236281250000E+03 -.223216271440E+01 -.833177562333E-08
    -.210365905441E-09  .100000000000E+01  .206700000000E+04  .000000000000E+00
     .280000000000E+01  .000000000000E+00 -.200234353542E-07  .950000000000E+02
     .583217000000E+06  .400000000000E+01
